{"type": "FeatureCollection", "features": [ {"type": "Feature", "properties": {"norad_id": 65304, "name": "DRAGON CRS-33", "group": "stations", "lat": 12.673664184637603, "lon": -102.51563985341807, "alt_km": 417.70899094399283, "timestamp": "2025-12-23T18:59:30.790671+00:00", "meta": {"OBJECT_NAME": "DRAGON CRS-33", "OBJECT_ID": "2025-186A", "EPOCH": "2025-12-23T04:21:36.091008", "MEAN_MOTION": 15.49746572, "ECCENTRICITY": 0.00031904, "INCLINATION": 51.6323, "RA_OF_ASC_NODE": 90.7678, "ARG_OF_PERICENTER": 289.6661, "MEAN_ANOMALY": 70.3984, "EPHEMERIS_TYPE": 0, "CLASSIFICATION_TYPE": "U", "NORAD_CAT_ID": 65304, "ELEMENT_SET_NO": 999, "REV_AT_EPOCH": 11, "BSTAR": 0.00021350548, "MEAN_MOTION_DOT": 0.00011641, "MEAN_MOTION_DDOT": 0}, "tle": {"line1": "1 65304U 25186A   25357.18166772  .00011641  00000+0  21351-3 0  9997", "line2": "2 65304  51.6323  90.7678 0003190 289.6661  70.3984 15.49746572   111"}}, "geometry": {"type": "Point", "coordinates": [-102.51563985341807, 12.673664184637603]}}, {"type": "Feature", "properties": {"norad_id": 65586, "name": "PROGRESS-MS 32", "group": "stations", "lat": 12.673663736003324, "lon": -102.51563947446421, "alt_km": 417.7089909946908, "timestamp": "2025-12-23T18:59:30.790680+00:00", "meta": {"OBJECT_NAME": "PROGRESS-MS 32", "OBJECT_ID": "2025-204A", "EPOCH": "2025-12-23T04:21:36.091008", "MEAN_MOTION": 15.49746572, "ECCENTRICITY": 0.00031904, "INCLINATION": 51.6323, "RA_OF_ASC_NODE": 90.7678, "ARG_OF_PERICENTER": 289.6661, "MEAN_ANOMALY": 70.3984, "EPHEMERIS_TYPE": 0, "CLASSIFICATION_TYPE": "U", "NORAD_CAT_ID": 65586, "ELEMENT_SET_NO": 999, "REV_AT_EPOCH": 27, "BSTAR": 0.00021350548, "MEAN_MOTION_DOT": 0.00011641, "MEAN_MOTION_DDOT": 0}, "tle": {"line1": "1 65586U 25204A   25357.18166772  .00011641  00000+0  21351-3 0  9990", "line2": "2 65586  51.6323  90.7678 0003190 289.6661  70.3984 15.49746572   270"}}, "geometry": {"type": "Point", "coordinates": [-102.51563947446421, 12.673663736003324]}}, {"type": "Feature", "properties": {"norad_id": 65616, "name": "CYGNUS NG-23", "group": "stations", "lat": 12.673663237521325, "lon": -102.51563905340481, "alt_km": 417.70899105101944, "timestamp": "2025-12-23T18:59:30.790690+00:00", "meta": {"OBJECT_NAME": "CYGNUS NG-23", "OBJECT_ID": "2025-208A", "EPOCH": "2025-12-23T04:21:36.091008", "MEAN_MOTION": 15.49746572, "ECCENTRICITY": 0.00031904, "INCLINATION": 51.6323, "RA_OF_ASC_NODE": 90.7678, "ARG_OF_PERICENTER": 289.6661, "MEAN_ANOMALY": 70.3984, "EPHEMERIS_TYPE": 0, "CLASSIFICATION_TYPE": "U", "NORAD_CAT_ID": 65616, "ELEMENT_SET_NO": 999, "REV_AT_EPOCH": 22, "BSTAR": 0.00021350548, "MEAN_MOTION_DOT": 0.00011641, "MEAN_MOTION_DDOT": 0}, "tle": {"line1": "1 65616U 25208A   25357.18166772  .00011641  00000+0  21351-3 0  9998", "line2": "2 65616  51.6323  90.7678 0003190 289.6661  70.3984 15.49746572   229"}}, "geometry": {"type": "Point", "coordinates": [-102.51563905340481, 12.673663237521325]}}, {"type": "Feature", "properties": {"norad_id": 65729, "name": "DRAGONFLY", "group": "stations", "lat": 17.598244558870018, "lon": 93.57256720937156, "alt_km": 337.0581705253944, "timestamp": "2025-12-23T18:59:30.790699+00:00", "meta": {"OBJECT_NAME": "DRAGONFLY", "OBJECT_ID": "1998-067XH", "EPOCH": "2025-12-22T15:29:37.121856", "MEAN_MOTION": 15.75220895, "ECCENTRICITY": 0.00077856, "INCLINATION": 51.6244, "RA_OF_ASC_NODE": 84.9151, "ARG_OF_PERICENTER": 337.8608, "MEAN_ANOMALY": 22.2054, "EPHEMERIS_TYPE": 0, "CLASSIFICATION_TYPE": "U", "NORAD_CAT_ID": 65729, "ELEMENT_SET_NO": 999, "REV_AT_EPOCH": 1472, "BSTAR": 0.0012171562, "MEAN_MOTION_DOT": 0.0019065, "MEAN_MOTION_DDOT": 0}, "tle": {"line1": "1 65729U 98067XH  25356.64556854  .00190650  00000+0  12172-2 0  9998", "line2": "2 65729  51.6244  84.9151 0007785 337.8608  22.2054 15.75220895 14726"}}, "geometry": {"type": "Point", "coordinates": [93.57256720937156, 17.598244558870018]}}, {"type": "Feature", "properties": {"norad_id": 65731, "name": "1998-067XK", "group": "stations", "lat": 37.74526523814427, "lon": -136.7595451264629, "alt_km": 363.4019722269459, "timestamp": "2025-12-23T18:59:30.790709+00:00", "meta": {"OBJECT_NAME": "1998-067XK", "OBJECT_ID": "1998-067XK", "EPOCH": "2025-12-23T06:12:26.032896", "MEAN_MOTION": 15.67713225, "ECCENTRICITY": 0.00049619, "INCLINATION": 51.6292, "RA_OF_ASC_NODE": 83.7873, "ARG_OF_PERICENTER": 312.0823, "MEAN_ANOMALY": 47.9751, "EPHEMERIS_TYPE": 0, "CLASSIFICATION_TYPE": "U", "NORAD_CAT_ID": 65731, "ELEMENT_SET_NO": 999, "REV_AT_EPOCH": 1479, "BSTAR": 0.00091991075, "MEAN_MOTION_DOT": 0.00103596, "MEAN_MOTION_DDOT": 0}, "tle": {"line1": "1 65731U 98067XK  25357.25863464  .00103596  00000+0  91991-3 0  9997", "line2": "2 65731  51.6292  83.7873 0004961 312.0823  47.9751 15.67713225 14797"}}, "geometry": {"type": "Point", "coordinates": [-136.7595451264629, 37.74526523814427]}}, {"type": "Feature", "properties": {"norad_id": 65732, "name": "RSP-03", "group": "stations", "lat": -36.63436003394618, "lon": -63.79640714361785, "alt_km": 358.9745476321468, "timestamp": "2025-12-23T18:59:30.790721+00:00", "meta": {"OBJECT_NAME": "RSP-03", "OBJECT_ID": "1998-067XL", "EPOCH": "2025-12-23T05:48:29.033280", "MEAN_MOTION": 15.71259199, "ECCENTRICITY": 0.0005983, "INCLINATION": 51.6261, "RA_OF_ASC_NODE": 82.9119, "ARG_OF_PERICENTER": 318.7681, "MEAN_ANOMALY": 41.2865, "EPHEMERIS_TYPE": 0, "CLASSIFICATION_TYPE": "U", "NORAD_CAT_ID": 65732, "ELEMENT_SET_NO": 999, "REV_AT_EPOCH": 1481, "BSTAR": 0.001084272, "MEAN_MOTION_DOT": 0.00142295, "MEAN_MOTION_DDOT": 0}, "tle": {"line1": "1 65732U 98067XL  25357.24200270  .00142295  00000+0  10843-2 0  9992", "line2": "2 65732  51.6261  82.9119 0005983 318.7681  41.2865 15.71259199 14814"}}, "geometry": {"type": "Point", "coordinates": [-63.79640714361785, -36.63436003394618]}}, {"type": "Feature", "properties": {"norad_id": 65733, "name": "GHS-01", "group": "stations", "lat": 49.20743888517445, "lon": 144.82985517106331, "alt_km": 324.3407202734361, "timestamp": "2025-12-23T18:59:30.790731+00:00", "meta": {"OBJECT_NAME": "GHS-01", "OBJECT_ID": "1998-067XM", "EPOCH": "2025-12-22T16:51:43.023456", "MEAN_MOTION": 15.79178849, "ECCENTRICITY": 0.00088219, "INCLINATION": 51.6291, "RA_OF_ASC_NODE": 83.8081, "ARG_OF_PERICENTER": 342.1592, "MEAN_ANOMALY": 17.9098, "EPHEMERIS_TYPE": 0, "CLASSIFICATION_TYPE": "U", "NORAD_CAT_ID": 65733, "ELEMENT_SET_NO": 999, "REV_AT_EPOCH": 1475, "BSTAR": 0.0013662085, "MEAN_MOTION_DOT": 0.00257457, "MEAN_MOTION_DDOT": 0}, "tle": {"line1": "1 65733U 98067XM  25356.70258129  .00257457  00000+0  13662-2 0  9998", "line2": "2 65733  51.6291  83.8081 0008821 342.1592  17.9098 15.79178849 14753"}}, "geometry": {"type": "Point", "coordinates": [144.82985517106331, 49.20743888517445]}}, {"type": "Feature", "properties": {"norad_id": 65941, "name": "YOTSUBA-KULOVER", "group": "stations", "lat": -10.458487804190435, "lon": 75.96128680557364, "alt_km": 385.54199111579237, "timestamp": "2025-12-23T18:59:30.790741+00:00", "meta": {"OBJECT_NAME": "YOTSUBA-KULOVER", "OBJECT_ID": "1998-067XN", "EPOCH": "2025-12-23T06:45:22.876128", "MEAN_MOTION": 15.6082914, "ECCENTRICITY": 0.00022338, "INCLINATION": 51.6291, "RA_OF_ASC_NODE": 86.9403, "ARG_OF_PERICENTER": 346.8625, "MEAN_ANOMALY": 13.231, "EPHEMERIS_TYPE": 0, "CLASSIFICATION_TYPE": "U", "NORAD_CAT_ID": 65941, "ELEMENT_SET_NO": 999, "REV_AT_EPOCH": 1150, "BSTAR": 0.00082116057, "MEAN_MOTION_DOT": 0.00069963, "MEAN_MOTION_DDOT": 0}, "tle": {"line1": "1 65941U 98067XN  25357.28151477  .00069963  00000+0  82116-3 0  9995", "line2": "2 65941  51.6291  86.9403 0002233 346.8625  13.2310 15.60829140 11508"}}, "geometry": {"type": "Point", "coordinates": [75.96128680557364, -10.458487804190435]}}, {"type": "Feature", "properties": {"norad_id": 65942, "name": "BOTAN", "group": "stations", "lat": 48.16597356262048, "lon": -158.9025692264413, "alt_km": 367.83846403775715, "timestamp": "2025-12-23T18:59:30.790750+00:00", "meta": {"OBJECT_NAME": "BOTAN", "OBJECT_ID": "1998-067XP", "EPOCH": "2025-12-23T06:16:22.684224", "MEAN_MOTION": 15.65035738, "ECCENTRICITY": 0.00032278, "INCLINATION": 51.6284, "RA_OF_ASC_NODE": 86.0542, "ARG_OF_PERICENTER": 325.6529, "MEAN_ANOMALY": 34.4257, "EPHEMERIS_TYPE": 0, "CLASSIFICATION_TYPE": "U", "NORAD_CAT_ID": 65942, "ELEMENT_SET_NO": 999, "REV_AT_EPOCH": 1151, "BSTAR": 0.0011276843, "MEAN_MOTION_DOT": 0.001142, "MEAN_MOTION_DDOT": 0}, "tle": {"line1": "1 65942U 98067XP  25357.26137366  .00114200  00000+0  11277-2 0  9999", "line2": "2 65942  51.6284  86.0542 0003227 325.6529  34.4257 15.65035738 11511"}}, "geometry": {"type": "Point", "coordinates": [-158.9025692264413, 48.16597356262048]}}, {"type": "Feature", "properties": {"norad_id": 65943, "name": "E-KAGAKU-1", "group": "stations", "lat": -10.906189261178266, "lon": 75.59609813359683, "alt_km": 386.46960986067734, "timestamp": "2025-12-23T18:59:30.790760+00:00", "meta": {"OBJECT_NAME": "E-KAGAKU-1", "OBJECT_ID": "1998-067XQ", "EPOCH": "2025-12-22T10:46:55.533504", "MEAN_MOTION": 15.60710313, "ECCENTRICITY": 0.00012968, "INCLINATION": 51.6319, "RA_OF_ASC_NODE": 91.1385, "ARG_OF_PERICENTER": 295.9007, "MEAN_ANOMALY": 64.1852, "EPHEMERIS_TYPE": 0, "CLASSIFICATION_TYPE": "U", "NORAD_CAT_ID": 65943, "ELEMENT_SET_NO": 999, "REV_AT_EPOCH": 1137, "BSTAR": 0.00086344374, "MEAN_MOTION_DOT": 0.00073283, "MEAN_MOTION_DDOT": 0}, "tle": {"line1": "1 65943U 98067XQ  25356.44925386  .00073283  00000+0  86344-3 0  9999", "line2": "2 65943  51.6319  91.1385 0001296 295.9007  64.1852 15.60710313 11376"}}, "geometry": {"type": "Point", "coordinates": [75.59609813359683, -10.906189261178266]}}]}